{"type": "FeatureCollection", "features": [{"type": "Feature", "properties": {"norad_id": 28890, "name": "BEIJING 1", "group": "dmc", "lat": -44.31931286244752, "lon": -62.46491784702359, "alt_km": 694.086200929697, "timestamp": "2025-12-24T03:53:29.308973+00:00", "meta": {"OBJECT_NAME": "BEIJING 1", "OBJECT_ID": "2005-043A", "EPOCH": "2025-12-23T20:18:16.761312", "MEAN_MOTION": 14.63375871, "ECCENTRICITY": 0.0015801, "INCLINATION": 98.2664, "RA_OF_ASC_NODE": 125.38, "ARG_OF_PERICENTER": 108.5529, "MEAN_ANOMALY": 251.7391, "EPHEMERIS_TYPE": 0, "CLASSIFICATION_TYPE": "U", "NORAD_CAT_ID": 28890, "ELEMENT_SET_NO": 999, "REV_AT_EPOCH": 7500, "BSTAR": 9.1668e-05, "MEAN_MOTION_DOT": 4.26e-06, "MEAN_MOTION_DDOT": 0}, "tle": {"line1": "1 28890U 05043A   25357.84602733  .00000426  00000+0  91668-4 0  9999", "line2": "2 28890  98.2664 125.3800 0015801 108.5529 251.7391 14.63375871 75003"}}, "geometry": {"type": "Point", "coordinates": [-62.46491784702359, -44.31931286244752]}}, {"type": "Feature", "properties": {"norad_id": 33320, "name": "HUANJING 1A (HJ-1A)", "group": "dmc", "lat": -5.7179160887697815, "lon": -13.244875546128661, "alt_km": 608.7815472277089, "timestamp": "2025-12-24T03:53:29.308997+00:00", "meta": {"OBJECT_NAME": "HUANJING 1A (HJ-1A)", "OBJECT_ID": "2008-041A", "EPOCH": "2025-12-23T21:26:30.660288", "MEAN_MOTION": 14.83426724, "ECCENTRICITY": 0.0019322, "INCLINATION": 97.6545, "RA_OF_ASC_NODE": 345.726, "ARG_OF_PERICENTER": 359.0188, "MEAN_ANOMALY": 1.0985, "EPHEMERIS_TYPE": 0, "CLASSIFICATION_TYPE": "U", "NORAD_CAT_ID": 33320, "ELEMENT_SET_NO": 999, "REV_AT_EPOCH": 93241, "BSTAR": 0.00015287, "MEAN_MOTION_DOT": 1.208e-05, "MEAN_MOTION_DDOT": 0}, "tle": {"line1": "1 33320U 08041A   25357.89341042  .00001208  00000+0  15287-3 0  9993", "line2": "2 33320  97.6545 345.7260 0019322 359.0188   1.0985 14.83426724932410"}}, "geometry": {"type": "Point", "coordinates": [-13.244875546128661, -5.7179160887697815]}}, {"type": "Feature", "properties": {"norad_id": 33321, "name": "HUANJING 1B (HJ-1B)", "group": "dmc", "lat": -12.004862802721505, "lon": 168.01480276429646, "alt_km": 648.2509371635633, "timestamp": "2025-12-24T03:53:29.309011+00:00", "meta": {"OBJECT_NAME": "HUANJING 1B (HJ-1B)", "OBJECT_ID": "2008-041B", "EPOCH": "2025-12-23T20:33:08.880192", "MEAN_MOTION": 14.8284703, "ECCENTRICITY": 0.0037798, "INCLINATION": 97.6401, "RA_OF_ASC_NODE": 349.3582, "ARG_OF_PERICENTER": 40.4962, "MEAN_ANOMALY": 319.9054, "EPHEMERIS_TYPE": 0, "CLASSIFICATION_TYPE": "U", "NORAD_CAT_ID": 33321, "ELEMENT_SET_NO": 999, "REV_AT_EPOCH": 93242, "BSTAR": 0.00011984, "MEAN_MOTION_DOT": 9.3e-06, "MEAN_MOTION_DDOT": 0}, "tle": {"line1": "1 33321U 08041B   25357.85635278  .00000930  00000+0  11984-3 0  9998", "line2": "2 33321  97.6401 349.3582 0037798  40.4962 319.9054 14.82847030932422"}}, "geometry": {"type": "Point", "coordinates": [168.01480276429646, -12.004862802721505]}}, {"type": "Feature", "properties": {"norad_id": 33446, "name": "YAOGAN-4", "group": "dmc", "lat": 78.6873732013489, "lon": 152.24576725788486, "alt_km": 622.5211998829654, "timestamp": "2025-12-24T03:53:29.309023+00:00", "meta": {"OBJECT_NAME": "YAOGAN-4", "OBJECT_ID": "2008-061A", "EPOCH": "2025-12-23T12:52:24.131424", "MEAN_MOTION": 14.82712321, "ECCENTRICITY": 0.0013024, "INCLINATION": 97.9197, "RA_OF_ASC_NODE": 287.5304, "ARG_OF_PERICENTER": 285.0861, "MEAN_ANOMALY": 74.8911, "EPHEMERIS_TYPE": 0, "CLASSIFICATION_TYPE": "U", "NORAD_CAT_ID": 33446, "ELEMENT_SET_NO": 999, "REV_AT_EPOCH": 91963, "BSTAR": 0.00016555, "MEAN_MOTION_DOT": 1.284e-05, "MEAN_MOTION_DDOT": 0}, "tle": {"line1": "1 33446U 08061A   25357.53639041  .00001284  00000+0  16555-3 0  9997", "line2": "2 33446  97.9197 287.5304 0013024 285.0861  74.8911 14.82712321919632"}}, "geometry": {"type": "Point", "coordinates": [152.24576725788486, 78.6873732013489]}}, {"type": "Feature", "properties": {"norad_id": 35681, "name": "DEIMOS-1", "group": "dmc", "lat": -82.27948651929127, "lon": -111.46529815419626, "alt_km": 654.149142612996, "timestamp": "2025-12-24T03:53:29.309034+00:00", "meta": {"OBJECT_NAME": "DEIMOS-1", "OBJECT_ID": "2009-041A", "EPOCH": "2025-12-23T20:09:30.873888", "MEAN_MOTION": 14.7496982, "ECCENTRICITY": 0.0002506, "INCLINATION": 97.7153, "RA_OF_ASC_NODE": 157.9269, "ARG_OF_PERICENTER": 62.0825, "MEAN_ANOMALY": 298.0638, "EPHEMERIS_TYPE": 0, "CLASSIFICATION_TYPE": "U", "NORAD_CAT_ID": 35681, "ELEMENT_SET_NO": 999, "REV_AT_EPOCH": 88103, "BSTAR": 0.00015095, "MEAN_MOTION_DOT": 9.67e-06, "MEAN_MOTION_DDOT": 0}, "tle": {"line1": "1 35681U 09041A   25357.83994067  .00000967  00000+0  15095-3 0  9999", "line2": "2 35681  97.7153 157.9269 0002506  62.0825 298.0638 14.74969820881038"}}, "geometry": {"type": "Point", "coordinates": [-111.46529815419626, -82.27948651929127]}}, {"type": "Feature", "properties": {"norad_id": 35683, "name": "UK-DMC 2", "group": "dmc", "lat": -46.724123771873636, "lon": 141.17672316871136, "alt_km": 650.7147502128255, "timestamp": "2025-12-24T03:53:29.309045+00:00", "meta": {"OBJECT_NAME": "UK-DMC 2", "OBJECT_ID": "2009-041C", "EPOCH": "2025-12-23T21:35:45.291264", "MEAN_MOTION": 14.75645899, "ECCENTRICITY": 0.000156, "INCLINATION": 97.8572, "RA_OF_ASC_NODE": 132.4882, "ARG_OF_PERICENTER": 91.2744, "MEAN_ANOMALY": 268.8644, "EPHEMERIS_TYPE": 0, "CLASSIFICATION_TYPE": "U", "NORAD_CAT_ID": 35683, "ELEMENT_SET_NO": 999, "REV_AT_EPOCH": 88071, "BSTAR": 0.0002159, "MEAN_MOTION_DOT": 1.425e-05, "MEAN_MOTION_DDOT": 0}, "tle": {"line1": "1 35683U 09041C   25357.89982976  .00001425  00000+0  21590-3 0  9990", "line2": "2 35683  97.8572 132.4882 0001560  91.2744 268.8644 14.75645899880712"}}, "geometry": {"type": "Point", "coordinates": [141.17672316871136, -46.724123771873636]}}, {"type": "Feature", "properties": {"norad_id": 40715, "name": "DMC3-FM1", "group": "dmc", "lat": 44.111009730544076, "lon": -142.56701143986814, "alt_km": 610.2583561563133, "timestamp": "2025-12-24T03:53:29.309055+00:00", "meta": {"OBJECT_NAME": "DMC3-FM1", "OBJECT_ID": "2015-032A", "EPOCH": "2025-12-23T21:13:28.691904", "MEAN_MOTION": 14.85460202, "ECCENTRICITY": 0.0004026, "INCLINATION": 97.6684, "RA_OF_ASC_NODE": 224.6707, "ARG_OF_PERICENTER": 275.4765, "MEAN_ANOMALY": 84.5992, "EPHEMERIS_TYPE": 0, "CLASSIFICATION_TYPE": "U", "NORAD_CAT_ID": 40715, "ELEMENT_SET_NO": 999, "REV_AT_EPOCH": 56388, "BSTAR": 0.00013034, "MEAN_MOTION_DOT": 1.073e-05, "MEAN_MOTION_DDOT": 0}, "tle": {"line1": "1 40715U 15032A   25357.88435986  .00001073  00000+0  13034-3 0  9995", "line2": "2 40715  97.6684 224.6707 0004026 275.4765  84.5992 14.85460202563884"}}, "geometry": {"type": "Point", "coordinates": [-142.56701143986814, 44.111009730544076]}}, {"type": "Feature", "properties": {"norad_id": 40716, "name": "DMC3-FM2", "group": "dmc", "lat": -73.66411614966661, "lon": -106.22120633345565, "alt_km": 616.2010666033229, "timestamp": "2025-12-24T03:53:29.309066+00:00", "meta": {"OBJECT_NAME": "DMC3-FM2", "OBJECT_ID": "2015-032B", "EPOCH": "2025-12-23T21:45:51.259392", "MEAN_MOTION": 14.85458928, "ECCENTRICITY": 0.0004678, "INCLINATION": 97.674, "RA_OF_ASC_NODE": 226.1438, "ARG_OF_PERICENTER": 282.1118, "MEAN_ANOMALY": 77.9573, "EPHEMERIS_TYPE": 0, "CLASSIFICATION_TYPE": "U", "NORAD_CAT_ID": 40716, "ELEMENT_SET_NO": 999, "REV_AT_EPOCH": 56388, "BSTAR": 7.5803e-05, "MEAN_MOTION_DOT": 6.02e-06, "MEAN_MOTION_DDOT": 0}, "tle": {"line1": "1 40716U 15032B   25357.90684328  .00000602  00000+0  75803-4 0  9995", "line2": "2 40716  97.6740 226.1438 0004678 282.1118  77.9573 14.85458928563889"}}, "geometry": {"type": "Point", "coordinates": [-106.22120633345565, -73.66411614966661]}}, {"type": "Feature", "properties": {"norad_id": 40717, "name": "DMC3-FM3", "group": "dmc", "lat": 11.42623001914339, "lon": 49.593348805875785, "alt_km": 614.7353418544044, "timestamp": "2025-12-24T03:53:29.309076+00:00", "meta": {"OBJECT_NAME": "DMC3-FM3", "OBJECT_ID": "2015-032C", "EPOCH": "2025-12-23T20:40:08.092992", "MEAN_MOTION": 14.85445109, "ECCENTRICITY": 0.0004001, "INCLINATION": 97.6793, "RA_OF_ASC_NODE": 227.7404, "ARG_OF_PERICENTER": 282.9235, "MEAN_ANOMALY": 77.1534, "EPHEMERIS_TYPE": 0, "CLASSIFICATION_TYPE": "U", "NORAD_CAT_ID": 40717, "ELEMENT_SET_NO": 999, "REV_AT_EPOCH": 56388, "BSTAR": 0.00011396, "MEAN_MOTION_DOT": 9.31e-06, "MEAN_MOTION_DDOT": 0}, "tle": {"line1": "1 40717U 15032C   25357.86120478  .00000931  00000+0  11396-3 0  9993", "line2": "2 40717  97.6793 227.7404 0004001 282.9235  77.1534 14.85445109563882"}}, "geometry": {"type": "Point", "coordinates": [49.593348805875785, 11.42623001914339]}}]}